IRIDIUM 7               
1 24793U 97020B   24263.55187241  .00000921  00000+0  31406-3 0  9991
2 24793  86.3911 290.3048 0002019  89.0581 271.0847 14.35430375433288
IRIDIUM 5               
1 24795U 97020D   24263.60206295  .00013369  00000+0  12234-2 0  9997
2 24795  86.3960 207.9596 0120057  28.1566 332.6081 14.89448039445110
IRIDIUM 4               
1 24796U 97020E   24263.56752012  .00000911  00000+0  30488-3 0  9997
2 24796  86.3905 287.3506 0002264  88.0169 272.1288 14.36355759433646
IRIDIUM 914             
1 24836U 97030A   24263.62226475  .00001080  00000+0  33531-3 0  9999
2 24836  86.3897 296.7448 0003530  66.9578 293.1993 14.40253992430279
IRIDIUM 16              
1 24841U 97030F   24263.24947427  .00000991  00000+0  32045-3 0  9999
2 24841  86.4041 319.1349 0001436 162.5463 197.5784 14.38151170428056
IRIDIUM 911             
1 24842U 97030G   24263.51189072  .00001454  00000+0  39553-3 0  9990
2 24842  86.4464 318.0662 0012017 281.6393  78.3461 14.46869956435934
IRIDIUM 17              
1 24870U 97034B   24263.48677569  .00001208  00000+0  39904-3 0  9991
2 24870  86.4015 348.5974 0002760 129.9918 230.1522 14.37257720424699
IRIDIUM 920             
1 24871U 97034C   24263.53027615  .00001101  00000+0  33680-3 0  9996
2 24871  86.4001 328.4451 0009476 250.9285 109.0888 14.40958721427599
